SAUDISAT 1C (SO-50)     
1 27607U 02058C   26156.08480701  .00001044  00000+0  14035-3 0  9999
2 27607  64.5503 166.4291 0075494 264.6787  94.5702 14.83019464262664
SAUDISAT 2              
1 28371U 04025F   26156.28308514  .00000302  00000+0  78524-4 0  9997
2 28371  98.5506 155.9575 0024187 336.1043  23.9030 14.56676563164013
SAUDISAT 3              
1 31118U 07012B   26155.74625948  .00000347  00000+0  64258-4 0  9990
2 31118  98.1450 106.1392 0013250 267.0879  92.8811 14.71418148 25910
PISAT                   
1 41784U 16059B   26156.29181750  .00000975  00000+0  17358-3 0  9995
2 41784  97.8178 157.2560 0027623 242.2192 117.6213 14.68961871517997
FLYING LAPTOP           
1 42831U 17042G   26156.32014637  .00004218  00000+0  33317-3 0  9992
2 42831  97.4646 312.3137 0018875 160.5709 199.6240 15.01065347484675
SALSAT                  
1 46495U 20068K   26155.97862976  .00008911  00000+0  31300-3 0  9995
2 46495  97.8851 158.3021 0009245 356.4519   3.6652 15.29615280313492
